{"type":"FeatureCollection","source":{"name":"Isidore of Charax, Parthian Stations, as mapped by AWMC","citation":"Ancient World Mapping Centre, Isidore's Parthian Stations; after Isidore of Charax, Mansiones Parthicae (first century AD)","url":"https://github.com/AWMC/isidore","licence":"GPL-3.0","licence_url":"https://www.gnu.org/licenses/gpl-3.0.html","processing":"Empty and untitled records dropped; stations whose cited Pleiades place lies over 100km away carry id_disagrees_km, by script/extract_isidore_stations.py"},"features":[{"type":"Feature","properties":{"title":"Antiochia/Theoupolis","pleiades_id":658381,"link":"https://pleiades.stoa.org/places/658381"},"geometry":{"type":"Point","coordinates":[36.16532,36.20066]}},{"type":"Feature","properties":{"title":"Zeugma","pleiades_id":658636,"link":"https://pleiades.stoa.org/places/658636"},"geometry":{"type":"Point","coordinates":[37.87334,37.05309]}},{"type":"Feature","properties":{"title":"Apamea","pleiades_id":658385,"link":"https://pleiades.stoa.org/places/658385"},"geometry":{"type":"Point","coordinates":[37.87008,37.06799]}},{"type":"Feature","properties":{"title":"Daiara/Thiara","pleiades_id":658449,"link":"https://pleiades.stoa.org/places/658449"},"geometry":{"type":"Point","coordinates":[38.21301,36.98628]}},{"type":"Feature","properties":{"title":"Batnae/Markopolis","pleiades_id":658405,"link":"https://pleiades.stoa.org/places/658405"},"geometry":{"type":"Point","coordinates":[38.42451,36.97669]}},{"type":"Feature","properties":{"title":"Dabana/Tharrana/Mannouorra","pleiades_id":658448,"link":"https://pleiades.stoa.org/places/6558448"},"geometry":{"type":"Point","coordinates":[38.95171,36.66375]}},{"type":"Feature","properties":{"title":"Tell Sahlan/[Sahlala]/Commisimbela?","pleiades_id":874752,"link":"https://pleiades.stoa.org/places/874752"},"geometry":{"type":"Point","coordinates":[38.95159,36.63193]}},{"type":"Feature","properties":{"title":"Alagma","pleiades_id":874312,"link":"https://pleiades.stoa.org/places/874312"},"geometry":{"type":"Point","coordinates":[39.02454,36.41161]}},{"type":"Feature","properties":{"title":"Tell al-Sadde/Ichnae?","pleiades_id":874729,"link":"https://pleiades.stoa.org/places/874729"},"geometry":{"type":"Point","coordinates":[38.95305,36.246]}},{"type":"Feature","properties":{"title":"Nicephorium/Callinicum/Leontopolis","pleiades_id":668318,"link":"https://pleiades.stoa.org/places/668318"},"geometry":{"type":"Point","coordinates":[39.02378,35.94781]}},{"type":"Feature","properties":{"title":"Basileia?/Annoukas?","pleiades_id":893955,"link":"https://pleiades.stoa.org/places/893955"},"geometry":{"type":"Point","coordinates":[39.5,35.5]}},{"type":"Feature","properties":{"title":"Ctesiphon","pleiades_id":893976,"link":"https://pleiades.stoa.org/places/893976","id_disagrees_km":448},"geometry":{"type":"Point","coordinates":[40.39592,35.21441]}},{"type":"Feature","properties":{"title":"Gabalein/Nabagata","pleiades_id":893998,"link":"https://pleiades.stoa.org/places/893998"},"geometry":{"type":"Point","coordinates":[40.44367,35.12851]}},{"type":"Feature","properties":{"title":"D(o)ura/Europos","pleiades_id":893990,"link":"https://pleiades.stoa.org/places/893990"},"geometry":{"type":"Point","coordinates":[40.72782,34.75008]}},{"type":"Feature","properties":{"title":"[Terqa]/Asicha?","pleiades_id":894158,"link":"https://pleiades.stoa.org/places/894158"},"geometry":{"type":"Point","coordinates":[40.56841,34.92225]}},{"type":"Feature","properties":{"title":"Idu/Diacira/Hit","pleiades_id":894008,"link":"https://pleiades.stoa.org/places/894008","id_disagrees_km":185},"geometry":{"type":"Point","coordinates":[41.02799,34.38969]}},{"type":"Feature","properties":{"title":"Ertaje/(Belesi) Biblada?","pleiades_id":893994,"link":"https://pleiades.stoa.org/places/893994"},"geometry":{"type":"Point","coordinates":[41.41148,34.47431]}},{"type":"Feature","properties":{"title":"Anatho","pleiades_id":893936,"link":"https://pleiades.stoa.org/places/893936"},"geometry":{"type":"Point","coordinates":[41.97266,34.46202]}},{"type":"Feature","properties":{"title":"Telbis","pleiades_id":894103,"link":"https://pleiades.stoa.org/places/894103"},"geometry":{"type":"Point","coordinates":[42.03936,34.37445]}},{"type":"Feature","properties":{"title":"Misiche/Peroz-Shapur/Anbar/Pumbedita/Pallughtha","pleiades_id":894043,"link":"https://pleiades.stoa.org/places/894043"},"geometry":{"type":"Point","coordinates":[43.64069,33.40007]}},{"type":"Feature","properties":{"title":"Seleucia/Sliq Kharawta","pleiades_id":894084,"link":"https://pleiades.stoa.org/places/894084"},"geometry":{"type":"Point","coordinates":[44.52632,33.10113]}},{"type":"Feature","properties":{"title":"Izan","pleiades_id":897777,"link":"https://pleiades.stoa.org/places/897777"},"geometry":{"type":"Point","coordinates":[42.37357,34.1857]}},{"type":"Feature","properties":{"title":"Aeipolis"},"geometry":{"type":"Point","coordinates":[42.85458,33.54266]}},{"type":"Feature","properties":{"title":"Artamita/Chalasar"},"geometry":{"type":"Point","coordinates":[44.64192,33.76038]}},{"type":"Feature","properties":{"title":"Chala"},"geometry":{"type":"Point","coordinates":[45.76597,34.11481]}},{"type":"Feature","properties":{"title":"Bagistana","pleiades_id":903002,"link":"https://pleiades.stoa.org/places/903002"},"geometry":{"type":"Point","coordinates":[47.0318,34.09456]}},{"type":"Feature","properties":{"title":"Kogkobar"},"geometry":{"type":"Point","coordinates":[47.75078,34.39836]}},{"type":"Feature","properties":{"title":"Batana"},"geometry":{"type":"Point","coordinates":[48.25711,34.78317]}},{"type":"Feature","properties":{"title":"Raga"},"geometry":{"type":"Point","coordinates":[51.64952,35.24899]}},{"type":"Feature","properties":{"title":"Apameia","pleiades_id":942286,"link":"https://pleiades.stoa.org/places/942286"},"geometry":{"type":"Point","coordinates":[53.06724,35.2895]}},{"type":"Feature","properties":{"title":"Asaak","pleiades_id":952067,"link":"https://pleiades.stoa.org/places/952067","id_disagrees_km":166},"geometry":{"type":"Point","coordinates":[56.65205,36.99076]}},{"type":"Feature","properties":{"title":"Pathaunisa/Nisaia","pleiades_id":952093,"link":"https://pleiades.stoa.org/places/952093","id_disagrees_km":175},"geometry":{"type":"Point","coordinates":[56.42927,38.69203]}},{"type":"Feature","properties":{"title":"Gathar","pleiades_id":952061,"link":"https://pleiades.stoa.org/places/952061","id_disagrees_km":146},"geometry":{"type":"Point","coordinates":[56.87483,38.57051]}},{"type":"Feature","properties":{"title":"Sirok","pleiades_id":952085,"link":"https://pleiades.stoa.org/places/952085","id_disagrees_km":132},"geometry":{"type":"Point","coordinates":[57.21914,38.40848]}},{"type":"Feature","properties":{"title":"Apauarktike","pleiades_id":952058,"link":"https://pleiades.stoa.org/places/952058","id_disagrees_km":110},"geometry":{"type":"Point","coordinates":[58.43433,37.65912]}},{"type":"Feature","properties":{"title":"Antiocheia Anydros"},"geometry":{"type":"Point","coordinates":[60.86471,37.5781]}},{"type":"Feature","properties":{"title":"Alexandreia","pleiades_id":60407,"link":"https://pleiades.stoa.org/places/60407","id_disagrees_km":999},"geometry":{"type":"Point","coordinates":[61.24952,33.99329]}},{"type":"Feature","properties":{"title":"Phra","pleiades_id":29718,"link":"https://pleiades.stoa.org/places/29718","id_disagrees_km":144},"geometry":{"type":"Point","coordinates":[60.58116,32.51481]}},{"type":"Feature","properties":{"title":"Korok","pleiades_id":29625,"link":"https://pleiades.stoa.org/places/29625","id_disagrees_km":101},"geometry":{"type":"Point","coordinates":[60.50015,31.42114]}},{"type":"Feature","properties":{"title":"Biyt","pleiades_id":59747,"link":"https://pleiades.stoa.org/places/59747"},"geometry":{"type":"Point","coordinates":[64.73306,31.70469]}},{"type":"Feature","properties":{"title":"Alexandreia","pleiades_id":711212,"link":"https://pleiades.stoa.org/places/711212"},"geometry":{"type":"Point","coordinates":[66.73813,31.90722]}}]}