{"type":"FeatureCollection","features":[{"type":"Feature","properties":{"id":558775,"kind":"road"},"geometry":{"type":"LineString","coordinates":[[41.24466,37.07815],[41.27515,37.07734],[41.3358,37.08345],[41.40304,37.0915],[41.48353,37.10117],[41.57952,37.11157],[41.67428,37.12682],[41.79891,37.16292],[41.88397,37.19175],[41.94072,37.22358],[41.97211,37.25173],[41.99405,37.26118],[42.05119,37.26266],[42.12128,37.27924],[42.15957,37.30248],[42.18122,37.32542],[42.19082,37.34184]]}},{"type":"Feature","properties":{"id":559997,"kind":"road"},"geometry":{"type":"LineString","coordinates":[[38.12092,36.66188],[38.1256,36.67421],[38.12274,36.6832],[38.11888,36.69753],[38.12106,36.70683],[38.15524,36.72646],[38.18736,36.74677],[38.22755,36.7734],[38.26253,36.80177],[38.2965,36.83049],[38.31732,36.84757],[38.34302,36.88409],[38.37926,36.93413],[38.40341,36.96013],[38.424,36.976]]}},{"type":"Feature","properties":{"id":559315,"kind":"road"},"geometry":{"type":"LineString","coordinates":[[39.02281,36.87618],[39.00403,36.87685],[38.96537,36.87482],[38.91781,36.87451],[38.85582,36.87311],[38.75151,36.88152],[38.70384,36.89049],[38.65436,36.90071],[38.60537,36.91675],[38.55109,36.93522],[38.51197,36.94983],[38.47329,36.96695],[38.44082,36.9786],[38.424,36.976]]}},{"type":"Feature","properties":{"id":559029,"kind":"road"},"geometry":{"type":"LineString","coordinates":[[38.79401,37.16015],[38.78258,37.15926],[38.75264,37.1488],[38.72565,37.14251],[38.69534,37.14056],[38.68629,37.13525],[38.66891,37.11985],[38.65121,37.10069],[38.62099,37.07868],[38.58726,37.05593],[38.56489,37.03835],[38.52963,37.01869],[38.48598,36.998],[38.45876,36.98786],[38.424,36.976]]}},{"type":"Feature","properties":{"id":558502,"kind":"road"},"geometry":{"type":"LineString","coordinates":[[38.12092,36.66188],[38.03437,36.5934],[37.99307,36.56642],[37.95129,36.54486],[37.87785,36.53187],[37.84525,36.52235],[37.75796,36.49877],[37.69792,36.4753],[37.63518,36.44942],[37.47371,36.37857],[37.41417,36.35548],[37.37124,36.33545],[37.27716,36.28624],[37.24919,36.27243],[37.2297,36.25978],[37.18827,36.23921],[37.15242,36.22023]]}},{"type":"Feature","properties":{"id":559383,"kind":"road"},"geometry":{"type":"LineString","coordinates":[[36.91505,36.78205],[36.92439,36.77942],[36.93138,36.7767],[36.93986,36.77836],[36.95519,36.78074],[36.96546,36.77746],[36.97755,36.76679],[36.98205,36.75758],[36.98481,36.74844],[36.98525,36.73568],[36.98075,36.71624],[36.97282,36.69207],[36.9639,36.66579],[36.9596,36.63804],[36.96098,36.61478],[36.97339,36.58991],[36.99351,36.56888],[37.01373,36.55558],[37.04741,36.54328],[37.07008,36.52771],[37.09183,36.50028],[37.11004,36.4667],[37.12349,36.44048],[37.13524,36.40946],[37.13819,36.39586],[37.14328,36.36942],[37.14457,36.34616],[37.14245,36.31817],[37.14184,36.29212],[37.14237,36.2623],[37.14623,36.23577],[37.15242,36.22023]]}},{"type":"Feature","properties":{"id":558597,"kind":"road"},"geometry":{"type":"LineString","coordinates":[[36.76332,35.27411],[36.75734,35.34966],[36.74965,35.57466],[36.72868,35.65011],[36.92259,35.91164],[37.0293,36.04753],[37.10742,36.15696],[37.15242,36.22023]]}},{"type":"Feature","properties":{"id":558697,"kind":"road"},"geometry":{"type":"LineString","coordinates":[[38.80427,35.90667],[38.79274,35.89114],[38.77599,35.87283],[38.76061,35.85839],[38.74797,35.85169],[38.72555,35.84742],[38.69249,35.84735],[38.64079,35.84939],[38.62113,35.85109],[38.60598,35.84983],[38.5923,35.84775],[38.57744,35.84856],[38.56042,35.85321],[38.54452,35.86089],[38.52622,35.86597],[38.48125,35.86756],[38.44399,35.86893],[38.40378,35.86883],[38.39156,35.87118],[38.37395,35.88218],[38.33405,35.903],[38.30799,35.91348],[38.24958,35.9285],[38.2108,35.93431],[38.17864,35.94527],[38.15731,35.96089],[38.14255,35.9755],[38.13016,35.98435],[38.1111,35.99175],[38.08469,36.01678],[38.06212,36.0436],[38.0528,36.06407],[38.04674,36.09271],[38.04557,36.11691],[38.04582,36.13414],[38.05689,36.16503],[38.07046,36.18735],[38.07657,36.19673],[38.07584,36.20966],[38.07612,36.22162],[38.0937,36.25125],[38.11223,36.27066],[38.12958,36.28614],[38.14172,36.29255],[38.16202,36.29806],[38.17137,36.30109],[38.17252,36.30719],[38.16854,36.32865],[38.16907,36.37736],[38.17408,36.41093],[38.18275,36.43523],[38.19476,36.45036],[38.20424,36.45737],[38.22575,36.46216],[38.2372,36.46633],[38.24384,36.47214],[38.24835,36.48423],[38.24711,36.49455],[38.23891,36.50599],[38.23838,36.517],[38.24522,36.5345],[38.24778,36.55097],[38.24762,36.56649],[38.23832,36.59007],[38.22909,36.60927],[38.21162,36.62631],[38.18736,36.64407],[38.17333,36.65065],[38.15744,36.65197],[38.15072,36.65207],[38.14417,36.65705],[38.13142,36.66319],[38.12092,36.66188]]}},{"type":"Feature","properties":{"id":559670,"kind":"road"},"geometry":{"type":"LineString","coordinates":[[37.87575,37.05988],[37.88373,37.05737],[37.90075,37.04767],[37.91082,37.04305],[37.92421,37.04141],[37.9371,37.03929],[37.94693,37.0326],[37.95462,37.02318],[37.95853,37.01199],[37.96101,36.99527],[37.96527,36.98268],[37.97487,36.96918],[37.98768,36.9516],[37.99264,36.942],[37.99731,36.92389],[38.00225,36.90634],[38.00773,36.8957],[38.01057,36.88767],[38.01129,36.87431],[38.00957,36.85446],[38.01209,36.83944],[38.01892,36.82254],[38.01965,36.80446],[38.01837,36.77651],[38.01721,36.73927],[38.0227,36.71229],[38.03299,36.69079],[38.0467,36.67674],[38.06049,36.66868],[38.07181,36.66618],[38.09706,36.66331],[38.12092,36.66188]]}},{"type":"Feature","properties":{"id":559504,"kind":"road"},"geometry":{"type":"LineString","coordinates":[[40.73,34.747],[40.58085,34.97855],[40.46105,35.03736],[40.44861,35.17175]]}},{"type":"Feature","properties":{"id":559409,"kind":"road"},"geometry":{"type":"LineString","coordinates":[[41.86118,36.32926],[41.76236,36.02106],[41.10684,35.65274],[40.70816,35.60711],[40.60491,35.44194],[40.54398,35.3253],[40.53032,35.26462],[40.44861,35.17175]]}},{"type":"Feature","properties":{"id":558403,"kind":"road"},"geometry":{"type":"LineString","coordinates":[[38.80427,35.90667],[39.01787,35.91365],[39.17909,35.86079],[39.61706,35.77142],[39.80656,35.72292],[39.92494,35.51635],[40.04509,35.4745],[40.16823,35.32681],[40.44861,35.17175]]}},{"type":"Feature","properties":{"id":559576,"kind":"road"},"geometry":{"type":"LineString","coordinates":[[37.87575,37.05988],[37.86511,37.05249],[37.85034,37.04527],[37.80721,37.02351],[37.78544,37.01217],[37.77237,37.00272],[37.76019,36.99245],[37.74868,36.97825],[37.73238,36.96088],[37.71889,36.95051],[37.70205,36.9386],[37.68901,36.92913],[37.66807,36.91804],[37.64826,36.90921],[37.62489,36.89838],[37.60831,36.88954],[37.59552,36.88052],[37.5814,36.87141],[37.56472,36.8663],[37.54394,36.85936],[37.51805,36.84723],[37.48817,36.83744],[37.45596,36.82947],[37.43165,36.8205],[37.41301,36.81126],[37.39062,36.7969],[37.37202,36.78237],[37.34538,36.75514],[37.32737,36.73778],[37.31334,36.72598],[37.28062,36.70336],[37.26985,36.70633],[37.24655,36.7086],[37.20236,36.71552],[37.17173,36.71856],[37.11579,36.72237],[37.09238,36.72306],[37.05872,36.72914],[37.0196,36.73591],[36.98205,36.75758],[36.97755,36.76679],[36.96546,36.77746],[36.95519,36.78074],[36.93138,36.7767],[36.91505,36.78205]]}},{"type":"Feature","properties":{"id":559653,"kind":"road"},"geometry":{"type":"LineString","coordinates":[[41.24466,37.07815],[41.21111,37.07885],[41.17846,37.08976],[41.10739,37.10708],[41.08234,37.10851],[41.04974,37.1022],[40.97179,37.09561],[40.93082,37.10027],[40.8487,37.12671],[40.74312,37.16036],[40.65418,37.18126],[40.6165,37.18778],[40.57446,37.19043],[40.4918,37.19423],[40.41803,37.20199],[40.28595,37.20082],[40.25866,37.19979],[40.19943,37.20755],[40.14196,37.20828],[40.09925,37.21365],[40.06685,37.22164],[40.04023,37.23208],[40.00752,37.23743],[39.96017,37.23623],[39.89608,37.23282],[39.84085,37.23345],[39.78206,37.23984],[39.73872,37.23981],[39.68776,37.23794],[39.62836,37.23268],[39.59423,37.22482],[39.56841,37.22216],[39.52364,37.22976],[39.48808,37.23591],[39.45465,37.23769],[39.41854,37.23227],[39.38417,37.22804],[39.35248,37.23097],[39.31704,37.23521],[39.26756,37.23799],[39.24604,37.23285],[39.21607,37.18826],[39.19861,37.17179],[39.18061,37.16271],[39.14616,37.16023],[39.01414,37.16982],[38.92176,37.16199],[38.79401,37.16015]]}},{"type":"Feature","properties":{"id":558587,"kind":"road"},"geometry":{"type":"LineString","coordinates":[[38.51675,37.52938],[38.52289,37.51165],[38.52563,37.49967],[38.52565,37.4864],[38.52055,37.47376],[38.51316,37.46464],[38.50407,37.45885],[38.53141,37.43639],[38.56314,37.41189],[38.58003,37.40232],[38.59541,37.40044],[38.6072,37.40088],[38.62055,37.39637],[38.63327,37.38267],[38.76848,37.20232],[38.78552,37.17603],[38.79401,37.16015]]}},{"type":"Feature","properties":{"id":558585,"kind":"road"},"geometry":{"type":"LineString","coordinates":[[37.87575,37.05988],[37.88043,37.06846],[37.89041,37.07514],[37.9025,37.07703],[37.91486,37.07757],[37.92654,37.07696],[37.94082,37.07539],[37.95423,37.07337],[37.96526,37.07224],[37.98576,37.07385],[38.00414,37.0769],[38.02222,37.08036],[38.03139,37.08352],[38.0623,37.09675],[38.08185,37.10431],[38.08957,37.10703],[38.1145,37.11659],[38.12181,37.11869],[38.14612,37.12561],[38.16423,37.12893],[38.19208,37.13409],[38.21416,37.13674],[38.24593,37.14068],[38.27146,37.14395],[38.30322,37.14759],[38.33334,37.15119],[38.37646,37.15478],[38.41709,37.15984],[38.45883,37.16613],[38.48195,37.16798],[38.51104,37.16876],[38.52249,37.16821],[38.54548,37.16659],[38.56876,37.16439],[38.58741,37.16063],[38.60778,37.1559],[38.62722,37.15233],[38.65204,37.14769],[38.66457,37.14627],[38.69038,37.14242],[38.69534,37.14056],[38.72565,37.14251],[38.75264,37.1488],[38.78258,37.15926],[38.79401,37.16015]]}},{"type":"Feature","properties":{"id":559258,"kind":"road"},"geometry":{"type":"LineString","coordinates":[[38.51675,37.52938],[38.50527,37.53674],[38.46747,37.55716],[38.44584,37.57091],[38.43119,37.58355],[38.40925,37.60065],[38.39084,37.61778],[38.37972,37.63247],[38.36711,37.65213],[38.35682,37.67142],[38.34538,37.68255],[38.33247,37.69376],[38.31601,37.71184],[38.30164,37.73206],[38.28655,37.75089],[38.27155,37.76589],[38.29477,37.77731],[38.30862,37.78706],[38.31782,37.79565],[38.32585,37.80195],[38.34141,37.80993],[38.37452,37.82104],[38.39418,37.82975],[38.41373,37.83968],[38.44917,37.86465],[38.46139,37.87254],[38.47441,37.87836],[38.4883,37.883],[38.50455,37.88715],[38.51391,37.8909],[38.52511,37.89822],[38.5392,37.90249],[38.55649,37.90718],[38.57692,37.91292],[38.58898,37.91756],[38.59666,37.92307],[38.60423,37.9334],[38.60953,37.94509],[38.61211,37.96158],[38.6116,37.98],[38.61432,37.99316],[38.62106,38.00257],[38.62664,38.01118],[38.63404,38.01828],[38.641,38.02523],[38.65058,38.0322],[38.65336,38.03755],[38.65944,38.0421],[38.66646,38.04843],[38.66956,38.05367],[38.66959,38.05875],[38.66533,38.06347],[38.66146,38.06896],[38.66157,38.07491],[38.66555,38.07896],[38.67246,38.08293],[38.6848,38.09018],[38.6931,38.09608],[38.69628,38.1022],[38.6973,38.10844],[38.695,38.11909],[38.6957,38.12544],[38.70265,38.1309],[38.70607,38.13604],[38.70653,38.14337],[38.70317,38.15198],[38.69886,38.15732],[38.68924,38.16323],[38.67672,38.16861],[38.66458,38.17686],[38.63596,38.1915],[38.62641,38.19828],[38.62043,38.20476],[38.61286,38.21895],[38.60473,38.23782],[38.59848,38.25097],[38.59335,38.25836],[38.58402,38.26416],[38.54706,38.28302],[38.52432,38.29685],[38.5135,38.30701],[38.50465,38.31951],[38.49415,38.32957],[38.48328,38.33675],[38.47225,38.34219],[38.45884,38.35171],[38.43879,38.36431],[38.42291,38.37702],[38.40783,38.39275],[38.39467,38.40785],[38.38293,38.41918],[38.37257,38.42557],[38.37176,38.43142]]}},{"type":"Feature","properties":{"id":558448,"kind":"road"},"geometry":{"type":"LineString","coordinates":[[41.86118,36.32926],[41.76396,36.37613],[41.47737,36.67182],[41.24466,37.07815]]}},{"type":"Feature","properties":{"id":559667,"kind":"road"},"geometry":{"type":"LineString","coordinates":[[38.80427,35.90667],[38.79957,35.90035],[38.80056,35.88225],[38.79381,35.83187],[38.78472,35.78562],[38.76949,35.72972],[38.75468,35.66668],[38.74685,35.64398],[38.74645,35.63084],[38.75685,35.58996],[38.77093,35.55294],[38.7863,35.50181],[38.79884,35.47674],[38.8403,35.42599],[38.85561,35.40214],[38.87645,35.35862],[38.91711,35.2671],[38.92596,35.23922],[38.931,35.18797],[38.9318,35.12123],[38.93192,35.10569],[38.92741,35.0844],[38.91558,35.0528],[38.91365,35.03577],[38.91695,35.00469],[38.9129,34.97291],[38.90325,34.94387],[38.88976,34.92025],[38.87644,34.89694],[38.8598,34.87482],[38.84744,34.86483],[38.80713,34.83267],[38.73856,34.77219],[38.69895,34.73499],[38.67875,34.70713],[38.65884,34.6869],[38.64787,34.67604],[38.61533,34.66361],[38.55535,34.64465],[38.53209,34.6396],[38.48429,34.62772],[38.43944,34.61294],[38.39256,34.60549],[38.34564,34.6006],[38.32933,34.59638],[38.30596,34.57845],[38.28477,34.55963]]}},{"type":"Feature","properties":{"id":558770,"kind":"road"},"geometry":{"type":"LineString","coordinates":[[36.69954,33.64572],[36.71639,33.64595],[36.73948,33.64292],[36.75261,33.6412],[36.77343,33.64114],[36.78866,33.64295],[36.79986,33.64498],[36.81117,33.6501],[36.82516,33.65431],[36.84026,33.65526],[36.85387,33.65515],[36.8746,33.65888],[36.90481,33.66877],[36.91777,33.67866],[36.94155,33.69939],[36.96955,33.72315],[36.99571,33.74218],[37.01974,33.75992],[37.0406,33.77004],[37.06266,33.77597],[37.08716,33.77816],[37.10693,33.78129],[37.12561,33.78656],[37.1424,33.79447],[37.16376,33.8073],[37.18982,33.82701],[37.2015,33.83843],[37.21523,33.85317],[37.22279,33.868],[37.23188,33.88052],[37.23954,33.88818],[37.24884,33.9051],[37.25476,33.91179],[37.26197,33.9196],[37.27539,33.93757],[37.28542,33.95602],[37.29624,33.97845],[37.30133,33.99122],[37.30827,34.00403],[37.31848,34.01663],[37.33654,34.0299],[37.35979,34.03694],[37.38899,34.03883],[37.39984,34.04094],[37.41005,34.04617],[37.41954,34.0532],[37.42971,34.05777],[37.44397,34.06161],[37.46255,34.06465],[37.48044,34.07015],[37.4917,34.0759],[37.52102,34.09982],[37.55567,34.13175],[37.56909,34.141],[37.58751,34.15144],[37.60725,34.15965],[37.62801,34.16392],[37.66209,34.16876],[37.68669,34.17394],[37.73585,34.18474],[37.76452,34.19521],[37.7798,34.20493],[37.80298,34.2231],[37.81417,34.23355],[37.82799,34.24623],[37.83305,34.25141],[37.83895,34.2534],[37.85152,34.2551],[37.88384,34.2654],[37.92047,34.27868],[37.9458,34.2896],[37.95862,34.29567],[38.00901,34.32072],[38.02531,34.33185],[38.05061,34.3459],[38.07145,34.3588],[38.08097,34.36557],[38.08908,34.36992],[38.11763,34.3808],[38.1405,34.39187],[38.15334,34.3995],[38.17221,34.41039],[38.18964,34.42044],[38.19639,34.42795],[38.2042,34.44203],[38.21968,34.48191],[38.22585,34.50239],[38.23164,34.521],[38.23451,34.52695],[38.24076,34.53283],[38.25258,34.53879],[38.26291,34.54438],[38.27535,34.55325],[38.28477,34.55963]]}},{"type":"Feature","properties":{"id":558771,"kind":"road"},"geometry":{"type":"LineString","coordinates":[[36.76332,35.27411],[36.7766,35.26467],[36.79054,35.25732],[36.80967,35.24674],[36.83507,35.23461],[36.85753,35.226],[36.87177,35.21802],[36.88875,35.20939],[36.90957,35.19924],[36.92244,35.19093],[36.93921,35.18057],[36.95726,35.16773],[36.98051,35.15497],[37.00406,35.14158],[37.01908,35.13664],[37.03592,35.13237],[37.04355,35.12985],[37.05668,35.12347],[37.06881,35.1169],[37.07899,35.112],[37.08897,35.11127],[37.11223,35.10972],[37.1262,35.10843],[37.13728,35.1068],[37.15215,35.10418],[37.17183,35.10406],[37.19288,35.10297],[37.23172,35.09442],[37.2585,35.08935],[37.28744,35.08433],[37.30602,35.08121],[37.32849,35.07858],[37.35247,35.07467],[37.37127,35.06941],[37.39279,35.06477],[37.41068,35.06211],[37.42632,35.05918],[37.43754,35.05721],[37.44657,35.05572],[37.45738,35.05029],[37.47146,35.03889],[37.48337,35.03129],[37.49403,35.0236],[37.51149,35.01618],[37.52822,35.0072],[37.54174,34.99982],[37.55945,34.99487],[37.57506,34.98677],[37.58853,34.97991],[37.59921,34.97681],[37.61466,34.96902],[37.6279,34.95657],[37.64098,34.947],[37.65149,34.93522],[37.65954,34.92401],[37.66549,34.91094],[37.67349,34.90154],[37.67965,34.89148],[37.68585,34.87704],[37.68933,34.85813],[37.69385,34.84014],[37.69716,34.82154],[37.70169,34.80869],[37.7059,34.79518],[37.70979,34.78357],[37.7128,34.77458],[37.72171,34.7646],[37.72561,34.75556],[37.73539,34.74297],[37.74579,34.72913],[37.75365,34.72336],[37.75989,34.7148],[37.76692,34.70983],[37.78409,34.69881],[37.79929,34.69129],[37.82811,34.6755],[37.85463,34.66126],[37.87105,34.65253],[37.8921,34.64271],[37.91538,34.63187],[37.9491,34.61819],[37.97123,34.61004],[37.99191,34.60392],[38.0114,34.59847],[38.03498,34.59211],[38.06715,34.58663],[38.10128,34.57891],[38.12426,34.57633],[38.14899,34.57237],[38.18187,34.5671],[38.2198,34.5629],[38.24169,34.56119],[38.25697,34.56023],[38.27155,34.55719],[38.28477,34.55963]]}}]}